BEIDOU-2 IGSO-1 (C06)   
1 36828U 10036A   24285.63723772 -.00000114  00000+0  00000+0 0  9990
2 36828  54.2542 168.5167 0040838 203.3275 342.3592  1.00248585 52053
BEIDOU-2 G4 (C04)       
1 37210U 10057A   24286.50879462 -.00000110  00000+0  00000+0 0  9990
2 37210   2.1251  69.8115 0008318 166.6419 128.3761  1.00270387 51146
BEIDOU-2 IGSO-2 (C07)   
1 37256U 10068A   24286.42669264 -.00000174  00000+0  00000+0 0  9990
2 37256  48.6671 279.3882 0039891 218.4873 144.8584  1.00265166 50656
BEIDOU-2 IGSO-3 (C08)   
1 37384U 11013A   24285.77275361 -.00000168  00000+0  00000+0 0  9994
2 37384  61.5289  45.9934 0032614 176.5844 184.3437  1.00279290 49512
BEIDOU-2 IGSO-4 (C09)   
1 37763U 11038A   24286.59816575 -.00000056  00000+0  00000+0 0  9997
2 37763  54.5601 171.1443 0129093 228.8770 292.5421  1.00283260 48502
BEIDOU-2 IGSO-5 (C10)   
1 37948U 11073A   24286.45841292 -.00000119  00000+0  00000+0 0  9990
2 37948  48.8013 279.0821 0102681 222.0852 141.1689  1.00266044 46996
BEIDOU-2 G5 (C05)       
1 38091U 12008A   24286.48863837  .00000057  00000+0  00000+0 0  9991
2 38091   2.0448  70.6180 0007597 221.1417 324.5247  1.00274847 46223
BEIDOU-2 M3 (C11)       
1 38250U 12018A   24285.98869566 -.00000036  00000+0  00000+0 0  9996
2 38250  56.2558 325.4512 0025141 263.1459  96.6335  1.86233479 84520
BEIDOU-2 M4 (C12)       
1 38251U 12018B   24286.45577921 -.00000035  00000+0  00000+0 0  9990
2 38251  56.1613 324.6984 0016022 263.6539  96.2294  1.86231885 84538
BEIDOU-2 M6 (C14)       
1 38775U 12050B   24285.62838245  .00000052  00000+0  00000+0 0  9992
2 38775  56.0097  83.2739 0010580 347.8070  12.1899  1.86230999 81886
BEIDOU-2 G6 (C02)       
1 38953U 12059A   24286.49367743 -.00000174  00000+0  00000+0 0  9991
2 38953   2.8544  79.5234 0006424 304.9887 258.8059  1.00273798 43762
BEIDOU-3S IGSO-1S (C31) 
1 40549U 15019A   24286.53188502 -.00000150  00000+0  00000+0 0  9997
2 40549  50.3559 302.8025 0036350 198.5021 168.6473  1.00278973 34935
BEIDOU-3S M2S (C58)     
1 40748U 15037A   24285.04492084 -.00000036  00000+0  00000+0 0  9999
2 40748  55.3909 323.0934 0013026 252.3526 107.5677  1.86229091 62680
BEIDOU-3S M1S (C57)     
1 40749U 15037B   24286.39172680 -.00000034  00000+0  00000+0 0  9994
2 40749  55.3925 323.0340 0003567 314.4907  45.5444  1.86227504 62716
BEIDOU-3S IGSO-2S (C56) 
1 40938U 15053A   24285.92386466 -.00000116  00000+0  00000+0 0  9990
2 40938  50.1814 266.0393 0052606 190.2574 353.8027  1.00279595 33193
BEIDOU-2 IGSO-6 (C13)   
1 41434U 16021A   24283.81334117 -.00000139  00000+0  00000+0 0  9995
2 41434  59.3526  44.2024 0053840 222.3795 139.7180  1.00292300 31318
BEIDOU-2 G7 (C03)       
1 41586U 16037A   24286.54405549 -.00000353  00000+0  00000+0 0  9999
2 41586   1.6566  66.3218 0007224 352.8534 268.7923  1.00276385   741
BEIDOU-3 M1 (C19)       
1 43001U 17069A   24286.46818373  .00000054  00000+0  00000+0 0  9990
2 43001  56.1602  83.3583 0007092 303.0734  56.8812  1.86231185 47194
BEIDOU-3 M2 (C20)       
1 43002U 17069B   24286.40570455  .00000054  00000+0  00000+0 0  9991
2 43002  56.1596  83.3959 0005316 341.8358  18.1680  1.86230899 47187
BEIDOU-3 M7 (C27)       
1 43107U 18003A   24285.61682805 -.00000037  00000+0  00000+0 0  9993
2 43107  54.8489 323.6137 0002309  81.0496 279.0395  1.86232417 45921
BEIDOU-3 M8 (C28)       
1 43108U 18003B   24285.55823380 -.00000037  00000+0  00000+0 0  9992
2 43108  54.8418 323.6007 0005080 256.1461 103.8603  1.86230862 45935
BEIDOU-3 M4 (C22)       
1 43207U 18018A   24285.99934435  .00000053  00000+0  00000+0 0  9997
2 43207  56.1184  83.4589 0004370  30.3116 329.7367  1.86231117 45329
BEIDOU-3 M3 (C21)       
1 43208U 18018B   24286.06597622  .00000053  00000+0  00000+0 0  9990
2 43208  56.1182  83.4609 0004911 323.4431  36.5463  1.86231137 45320
BEIDOU-3 M9 (C29)       
1 43245U 18029A   24286.28619838 -.00000032  00000+0  00000+0 0  9999
2 43245  54.7283 321.2876 0002270 246.8750 113.1636  1.86232488 44484
BEIDOU-3 M10 (C30)      
1 43246U 18029B   24286.21570400 -.00000032  00000+0  00000+0 0  9994
2 43246  54.7255 321.3169 0003005 343.2848  16.7678  1.86232830 44460
BEIDOU-2 IGSO-7 (C16)   
1 43539U 18057A   24286.55048109 -.00000131  00000+0  00000+0 0  9993
2 43539  55.1472 168.3673 0078001 232.8370 291.9232  1.00275889 22995
BEIDOU-3 M5 (C23)       
1 43581U 18062A   24284.29263357  .00000008  00000+0  00000+0 0  9991
2 43581  54.1201 203.2172 0003568 301.6528  58.3409  1.86228698 42184
BEIDOU-3 M6 (C24)       
1 43582U 18062B   24286.30569102 -.00000004  00000+0  00000+0 0  9990
2 43582  54.1194 203.1381 0005960  22.8880 337.1616  1.86229728 42226
BEIDOU-3 M12 (C26)      
1 43602U 18067A   24286.23905385 -.00000003  00000+0  00000+0 0  9996
2 43602  54.2106 201.8323 0007948  27.1644 332.9026  1.86227597 41700
BEIDOU-3 M11 (C25)      
1 43603U 18067B   24285.29850477  .00000001  00000+0  00000+0 0  9990
2 43603  54.2079 201.8290 0004678  17.6084 342.4358  1.86227149 41710
BEIDOU-3 M13 (C32)      
1 43622U 18072A   24284.72307335  .00000047  00000+0  00000+0 0  9994
2 43622  56.0897  83.0288 0003900 300.5690  59.4135  1.86231227 41215
BEIDOU-3 M14 (C33)      
1 43623U 18072B   24284.58853480  .00000047  00000+0  00000+0 0  9996
2 43623  56.0912  83.0266 0002492   3.9141 356.1086  1.86231240 41206
BEIDOU-3 M16 (C35)      
1 43647U 18078A   24285.82451537 -.00000033  00000+0  00000+0 0  9999
2 43647  54.6248 321.3918 0005997   9.1051 350.9679  1.86232170 40731
BEIDOU-3 M15 (C34)      
1 43648U 18078B   24285.41668607 -.00000034  00000+0  00000+0 0  9994
2 43648  54.6209 321.4085 0002628   7.9806 352.0851  1.86232284 40738
BEIDOU-3 G1 (C59)       
1 43683U 18085A   24286.56889396 -.00000276  00000+0  00000+0 0  9996
2 43683   2.4760 105.3116 0002496  33.0081 228.1918  1.00273797 21918
BEIDOU-3 M17 (C36)      
1 43706U 18093A   24286.10554113 -.00000003  00000+0  00000+0 0  9995
2 43706  54.2028 203.1024 0008438 291.5593  68.3744  1.86228277 40124
BEIDOU-3 M18 (C37)      
1 43707U 18093B   24284.89602832  .00000004  00000+0  00000+0 0  9992
2 43707  54.2037 203.1354 0007318 323.6220  36.3553  1.86229871 40091
BEIDOU-3 IGSO-1 (C38)   
1 44204U 19023A   24285.77748873 -.00000202  00000+0  00000+0 0  9994
2 44204  57.8175  44.0108 0024715 206.8847 168.9538  1.00266335  1063
BEIDOU-2 G8 (C01)       
1 44231U 19027A   24286.57099922 -.00000246  00000+0  00000+0 0  9999
2 44231   1.7634  74.4728 0003709 185.1897 112.0969  1.00270533 19938
BEIDOU-3 IGSO-2 (C39)   
1 44337U 19035A   24286.55197132 -.00000128  00000+0  00000+0 0  9994
2 44337  55.1820 164.2418 0034757 201.6640 332.6244  1.00260414 19524
BEIDOU-3 M24 (C46)      
1 44542U 19061A   24284.96589808  .00000003  00000+0  00000+0 0  9990
2 44542  54.4305 203.4502 0008632   0.6744 359.3530  1.86229383 34353
BEIDOU-3 M23 (C45)      
1 44543U 19061B   24286.27666046 -.00000003  00000+0  00000+0 0  9998
2 44543  54.4290 203.3750 0005551 350.4597  80.9390  1.86229491 34384
BEIDOU-3 IGSO-3 (C40)   
1 44709U 19073A   24285.41044565 -.00000145  00000+0  00000+0 0  9993
2 44709  55.8545 287.4914 0041165 191.0546 168.8708  1.00267018 18301
BEIDOU-3 M22 (C44)      
1 44793U 19078A   24286.42164204 -.00000033  00000+0  00000+0 0  9992
2 44793  54.4719 321.2888 0004642  14.4737 345.6021  1.86232039 33239
BEIDOU-3 M21 (C43)      
1 44794U 19078B   24286.01418755 -.00000033  00000+0  00000+0 0  9991
2 44794  54.4458 321.2765 0002795 356.4450   3.6150  1.86232525 33236
BEIDOU-3 M19 (C41)      
1 44864U 19090A   24285.72319623  .00000052  00000+0  00000+0 0  9994
2 44864  56.0241  83.1607 0015517 279.2143  78.0625  1.86231499 32802
BEIDOU-3 M20 (C42)      
1 44865U 19090B   24285.58979359  .00000051  00000+0  00000+0 0  9996
2 44865  56.0255  83.1988 0012969 294.0432  63.4945  1.86231453 32784
BEIDOU-3 G2 (C60)       
1 45344U 20017A   24284.79216146 -.00000136  00000+0  00000+0 0  9995
2 45344   2.4697  33.6705 0003739 191.2060 160.2252  1.00270731 17091
BEIDOU-3 G3 (C61)       
1 45807U 20040A   24286.54394811 -.00000353  00000+0  00000+0 0  9997
2 45807   0.9981  53.4278 0002783 301.6356 332.9597  1.00269723 15921
BEIDOU-3 G4 (C62)       
1 56564U 23066A   24286.50879462 -.00000114  00000+0  00000+0 0  9991
2 56564   1.8368 288.6504 0005753 239.3891 196.7198  1.00272510  5253
BEIDOU-3 M28 (C50)      
1 58654U 23207A   24285.56011083  .00000049  00000+0  00000+0 0  9998
2 58654  55.2092  83.1006 0000775 200.9142 159.1054  1.86232097  5411
BEIDOU-3 M26 (C48)      
1 58655U 23207B   24285.35931400  .00000048  00000+0  00000+0 0  9999
2 58655  55.2113  83.0930 0002223 214.8732 145.1347  1.86231660  5392
